[{"OBJECT_NAME":"STARLINK-5903","OBJECT_ID":"2023-042L","EPOCH":"2026-03-09T08:57:30.921984","MEAN_MOTION":15.0254056,"ECCENTRICITY":0.00012431,"INCLINATION":43.0031,"RA_OF_ASC_NODE":57.7557,"ARG_OF_PERICENTER":268.6847,"MEAN_ANOMALY":91.3853,"EPHEMERIS_TYPE":0,"CLASSIFICATION_TYPE":"U","NORAD_CAT_ID":55996,"ELEMENT_SET_NO":999,"REV_AT_EPOCH":16286,"BSTAR":-7.1438872e-5,"MEAN_MOTION_DOT":-1.169e-5,"MEAN_MOTION_DDOT":0},{"OBJECT_NAME":"TLV R\/B","OBJECT_ID":"2023-188B","EPOCH":"2026-03-09T16:54:55.723104","MEAN_MOTION":15.27880264,"ECCENTRICITY":0.01149043,"INCLINATION":46.9277,"RA_OF_ASC_NODE":152.866,"ARG_OF_PERICENTER":233.4436,"MEAN_ANOMALY":125.5857,"EPHEMERIS_TYPE":0,"CLASSIFICATION_TYPE":"U","NORAD_CAT_ID":58501,"ELEMENT_SET_NO":999,"REV_AT_EPOCH":12559,"BSTAR":0.00038559521,"MEAN_MOTION_DOT":0.0001266,"MEAN_MOTION_DDOT":0}]
